H1 CPF  1  DGF 2022 10 15 10  7881 larets     NONE      
H2   304206 5557    27944 2022 10 15 00 00 00 2022 10 22 00 00 00    30 1 1  0 0 0
H5  0.0650
H9
10 0 59870  79200.000000  0      -1801392.937      -1412683.104      -6678643.214
10 0 59870  79230.000000  0      -1714087.769      -1212003.247      -6740776.364
10 0 59870  79260.000000  0      -1624171.961      -1010487.354      -6796052.871
10 0 59870  79290.000000  0      -1531733.279       -808350.230      -6844417.254
10 0 59870  79320.000000  0      -1436862.946       -605806.861      -6885821.004
10 0 59870  79350.000000  0      -1339655.545       -403072.190      -6920222.632
10 0 59870  79380.000000  0      -1240208.931       -200360.890      -6947587.703
10 0 59870  79410.000000  0      -1138624.126          2112.853      -6967888.868
10 0 59870  79440.000000  0      -1035005.223        204135.571      -6981105.892
10 0 59870  79470.000000  0       -929459.273        405494.731      -6987225.669
10 0 59870  79500.000000  0       -822096.181        605978.960      -6986242.238
10 0 59870  79530.000000  0       -713028.587        805378.264      -6978156.780
10 0 59870  79560.000000  0       -602371.756       1003484.246      -6962977.620
10 0 59870  79590.000000  0       -490243.452       1200090.317      -6940720.209
10 0 59870  79620.000000  0       -376763.823       1394991.905      -6911407.119
10 0 59870  79650.000000  0       -262055.271       1587986.665      -6875068.020
10 0 59870  79680.000000  0       -146242.327       1778874.694      -6831739.661
10 0 59870  79710.000000  0        -29451.510       1967458.732      -6781465.831
10 0 59870  79740.000000  0         88188.803       2153544.369      -6724297.320
10 0 59870  79770.000000  0        206548.523       2336940.244      -6660291.875
10 0 59870  79800.000000  0        325495.991       2517458.240      -6589514.145
10 0 59870  79830.000000  0        444898.120       2694913.682      -6512035.618
10 0 59870  79860.000000  0        564620.548       2869125.525      -6427934.555
10 0 59870  79890.000000  0        684527.780       3039916.539      -6337295.914
10 0 59870  79920.000000  0        804483.344       3207113.489      -6240211.263
10 0 59870  79950.000000  0        924349.938       3370547.315      -6136778.701
10 0 59870  79980.000000  0       1043989.590       3530053.296      -6027102.763
10 0 59870  80010.000000  0       1163263.813       3685471.227      -5911294.326
10 0 59870  80040.000000  0       1282033.762       3836645.579      -5789470.499
10 0 59870  80070.000000  0       1400160.398       3983425.661      -5661754.515
10 0 59870  80100.000000  0       1517504.647       4125665.774      -5528275.613
10 0 59870  80130.000000  0       1633927.563       4263225.360      -5389168.915
10 0 59870  80160.000000  0       1749290.492       4395969.146      -5244575.293
10 0 59870  80190.000000  0       1863455.235       4523767.288      -5094641.238
10 0 59870  80220.000000  0       1976284.217       4646495.500      -4939518.710
10 0 59870  80250.000000  0       2087640.646       4764035.187      -4779364.992
10 0 59870  80280.000000  0       2197388.683       4876273.559      -4614342.529
10 0 59870  80310.000000  0       2305393.602       4983103.746      -4444618.773
10 0 59870  80340.000000  0       2411521.953       5084424.907      -4270366.017
10 0 59870  80370.000000  0       2515641.733       5180142.329      -4091761.222
10 0 59870  80400.000000  0       2617622.541       5270167.528      -3908985.845
10 0 59870  80430.000000  0       2717335.747       5354418.332      -3722225.657
10 0 59870  80460.000000  0       2814654.650       5432818.968      -3531670.555
10 0 59870  80490.000000  0       2909454.642       5505300.135      -3337514.368
10 0 59870  80520.000000  0       3001613.363       5571799.070      -3139954.663
10 0 59870  80550.000000  0       3091010.862       5632259.610      -2939192.543
10 0 59870  80580.000000  0       3177529.747       5686632.240      -2735432.437
10 0 59870  80610.000000  0       3261055.343       5734874.137      -2528881.899
10 0 59870  80640.000000  0       3341475.835       5776949.212      -2319751.387
10 0 59870  80670.000000  0       3418682.420       5812828.134      -2108254.053
10 0 59870  80700.000000  0       3492569.449       5842488.356      -1894605.516
10 0 59870  80730.000000  0       3563034.567       5865914.125      -1679023.642
10 0 59870  80760.000000  0       3629978.852       5883096.492      -1461728.314
10 0 59870  80790.000000  0       3693306.946       5894033.302      -1242941.204
10 0 59870  80820.000000  0       3752927.182       5898729.190      -1022885.544
10 0 59870  80850.000000  0       3808751.716       5897195.556       -801785.889
10 0 59870  80880.000000  0       3860696.642       5889450.544       -579867.885
10 0 59870  80910.000000  0       3908682.111       5875519.005       -357358.033
10 0 59870  80940.000000  0       3952632.444       5855432.457       -134483.449
10 0 59870  80970.000000  0       3992476.240       5829229.032         88528.370
10 0 59870  81000.000000  0       4028146.475       5796953.416        311449.791
10 0 59870  81030.000000  0       4059580.601       5758656.785        534053.274
10 0 59870  81060.000000  0       4086720.642       5714396.733        756111.619
10 0 59870  81090.000000  0       4109513.274       5664237.184        977398.194
10 0 59870  81120.000000  0       4127909.914       5608248.312       1197687.179
10 0 59870  81150.000000  0       4141866.787       5546506.439       1416753.794
10 0 59870  81180.000000  0       4151345.000       5479093.943       1634374.533
10 0 59870  81210.000000  0       4156310.610       5406099.152       1850327.398
10 0 59870  81240.000000  0       4156734.682       5327616.234       2064392.134
10 0 59870  81270.000000  0       4152593.349       5243745.071       2276350.467
10 0 59870  81300.000000  0       4143867.851       5154591.129       2485986.334
10 0 59870  81330.000000  0       4130544.575       5060265.313       2693086.107
10 0 59870  81360.000000  0       4112615.083       4960883.825       2897438.806
10 0 59870  81390.000000  0       4090076.143       4856568.022       3098836.316
10 0 59870  81420.000000  0       4062929.746       4747444.262       3297073.598
10 0 59870  81450.000000  0       4031183.125       4633643.753       3491948.897
10 0 59870  81480.000000  0       3994848.769       4515302.387       3683263.951
10 0 59870  81510.000000  0       3953944.424       4392560.577       3870824.190
10 0 59870  81540.000000  0       3908493.096       4265563.081       4054438.933
10 0 59870  81570.000000  0       3858523.040       4134458.831       4233921.584
10 0 59870  81600.000000  0       3804067.750       3999400.759       4409089.820
10 0 59870  81630.000000  0       3745165.927       3860545.611       4579765.782
10 0 59870  81660.000000  0       3681861.454       3718053.767       4745776.253
10 0 59870  81690.000000  0       3614203.354       3572089.042       4906952.827
10 0 59870  81720.000000  0       3542245.755       3422818.495       5063132.084
10 0 59870  81750.000000  0       3466047.839       3270412.228       5214155.740
10 0 59870  81780.000000  0       3385673.793       3115043.188       5359870.797
10 0 59870  81810.000000  0       3301192.752       2956886.970       5500129.691
10 0 59870  81840.000000  0       3212678.742       2796121.621       5634790.437
10 0 59870  81870.000000  0       3120210.613       2632927.436       5763716.762
10 0 59870  81900.000000  0       3023871.965       2467486.754       5886778.244
10 0 59870  81930.000000  0       2923751.074       2299983.752       6003850.436
10 0 59870  81960.000000  0       2819940.806       2130604.238       6114814.989
10 0 59870  81990.000000  0       2712538.526       1959535.440       6219559.758
10 0 59870  82020.000000  0       2601646.009       1786965.805       6317978.916
10 0 59870  82050.000000  0       2487369.334       1613084.781       6409973.047
10 0 59870  82080.000000  0       2369818.787       1438082.618       6495449.239
10 0 59870  82110.000000  0       2249108.752       1262150.159       6574321.174
10 0 59870  82140.000000  0       2125357.596       1085478.632       6646509.207
10 0 59870  82170.000000  0       1998687.555        908259.446       6711940.437
10 0 59870  82200.000000  0       1869224.611        730683.992       6770548.783
10 0 59870  82230.000000  0       1737098.364        552943.431       6822275.038
10 0 59870  82260.000000  0       1602441.911        375228.500       6867066.933
10 0 59870  82290.000000  0       1465391.705        197729.306       6904879.183
10 0 59870  82320.000000  0       1326087.423         20635.122       6935673.539
10 0 59870  82350.000000  0       1184671.820       -155865.811       6959418.820
10 0 59870  82380.000000  0       1041290.585       -331586.492       6976090.940
10 0 59870  82410.000000  0        896092.194       -506341.347       6985672.932
10 0 59870  82440.000000  0        749227.752       -679946.427       6988154.958
10 0 59870  82470.000000  0        600850.847       -852219.595       6983534.330
10 0 59870  82500.000000  0        451117.381      -1022980.720       6971815.506
10 0 59870  82530.000000  0        300185.412      -1192051.860       6953010.089
10 0 59870  82560.000000  0        148214.991      -1359257.451       6927136.815
10 0 59870  82590.000000  0         -4632.010      -1524424.482       6894221.537
10 0 59870  82620.000000  0       -158192.067      -1687382.679       6854297.201
10 0 59870  82650.000000  0       -312300.178      -1847964.677       6807403.815
10 0 59870  82680.000000  0       -466790.035      -2006006.192       6753588.413
10 0 59870  82710.000000  0       -621494.206      -2161346.187       6692905.007
10 0 59870  82740.000000  0       -776244.308      -2313827.038       6625414.535
10 0 59870  82770.000000  0       -930871.187      -2463294.687       6551184.807
99
